[{"OBJECT_NAME":"SKYSAT-A","OBJECT_ID":"2013-066C","EPOCH":"2026-03-03T16:20:07.867104","MEAN_MOTION":15.12300054,"ECCENTRICITY":0.0020561,"INCLINATION":97.3965,"RA_OF_ASC_NODE":115.4106,"ARG_OF_PERICENTER":322.5514,"MEAN_ANOMALY":37.4283,"EPHEMERIS_TYPE":0,"CLASSIFICATION_TYPE":"U","NORAD_CAT_ID":39418,"ELEMENT_SET_NO":999,"REV_AT_EPOCH":67253,"BSTAR":0.00028845,"MEAN_MOTION_DOT":4.955e-5,"MEAN_MOTION_DDOT":0},{"OBJECT_NAME":"SKYSAT-B","OBJECT_ID":"2014-037D","EPOCH":"2026-03-03T19:27:36.316800","MEAN_MOTION":14.87697185,"ECCENTRICITY":0.0004202,"INCLINATION":98.372,"RA_OF_ASC_NODE":15.8691,"ARG_OF_PERICENTER":258.6689,"MEAN_ANOMALY":101.4054,"EPHEMERIS_TYPE":0,"CLASSIFICATION_TYPE":"U","NORAD_CAT_ID":40072,"ELEMENT_SET_NO":999,"REV_AT_EPOCH":63029,"BSTAR":0.00031362,"MEAN_MOTION_DOT":2.796e-5,"MEAN_MOTION_DDOT":0},{"OBJECT_NAME":"SKYSAT-C1","OBJECT_ID":"2016-040C","EPOCH":"2026-03-03T15:15:55.064736","MEAN_MOTION":15.34362051,"ECCENTRICITY":0.0003961,"INCLINATION":96.9705,"RA_OF_ASC_NODE":100.1375,"ARG_OF_PERICENTER":65.3979,"MEAN_ANOMALY":294.7678,"EPHEMERIS_TYPE":0,"CLASSIFICATION_TYPE":"U","NORAD_CAT_ID":41601,"ELEMENT_SET_NO":999,"REV_AT_EPOCH":54167,"BSTAR":0.00038437,"MEAN_MOTION_DOT":0.00012726,"MEAN_MOTION_DDOT":0},{"OBJECT_NAME":"SKYSAT-C4","OBJECT_ID":"2016-058B","EPOCH":"2026-03-03T15:11:29.208480","MEAN_MOTION":15.45117826,"ECCENTRICITY":8.98e-5,"INCLINATION":96.9288,"RA_OF_ASC_NODE":89.0114,"ARG_OF_PERICENTER":81.9993,"MEAN_ANOMALY":278.1359,"EPHEMERIS_TYPE":0,"CLASSIFICATION_TYPE":"U","NORAD_CAT_ID":41771,"ELEMENT_SET_NO":999,"REV_AT_EPOCH":52915,"BSTAR":0.00044216,"MEAN_MOTION_DOT":0.00020875,"MEAN_MOTION_DDOT":0},{"OBJECT_NAME":"SKYSAT-C5","OBJECT_ID":"2016-058C","EPOCH":"2026-03-03T16:40:20.789184","MEAN_MOTION":15.34150166,"ECCENTRICITY":0.000189,"INCLINATION":97.0624,"RA_OF_ASC_NODE":108.0178,"ARG_OF_PERICENTER":85.7555,"MEAN_ANOMALY":274.3905,"EPHEMERIS_TYPE":0,"CLASSIFICATION_TYPE":"U","NORAD_CAT_ID":41772,"ELEMENT_SET_NO":999,"REV_AT_EPOCH":52757,"BSTAR":0.00034742,"MEAN_MOTION_DOT":0.00011413,"MEAN_MOTION_DDOT":0},{"OBJECT_NAME":"SKYSAT-C2","OBJECT_ID":"2016-058D","EPOCH":"2026-03-03T14:22:19.307712","MEAN_MOTION":15.39503714,"ECCENTRICITY":0.0005303,"INCLINATION":97.0281,"RA_OF_ASC_NODE":88.7915,"ARG_OF_PERICENTER":81.4883,"MEAN_ANOMALY":278.6964,"EPHEMERIS_TYPE":0,"CLASSIFICATION_TYPE":"U","NORAD_CAT_ID":41773,"ELEMENT_SET_NO":999,"REV_AT_EPOCH":52879,"BSTAR":0.00041141,"MEAN_MOTION_DOT":0.00016092,"MEAN_MOTION_DDOT":0},{"OBJECT_NAME":"SKYSAT-C3","OBJECT_ID":"2016-058E","EPOCH":"2026-03-03T14:40:42.861216","MEAN_MOTION":15.47994897,"ECCENTRICITY":0.0001508,"INCLINATION":96.9184,"RA_OF_ASC_NODE":97.7412,"ARG_OF_PERICENTER":101.3682,"MEAN_ANOMALY":258.7739,"EPHEMERIS_TYPE":0,"CLASSIFICATION_TYPE":"U","NORAD_CAT_ID":41774,"ELEMENT_SET_NO":999,"REV_AT_EPOCH":52975,"BSTAR":0.00050606,"MEAN_MOTION_DOT":0.00026407,"MEAN_MOTION_DDOT":0},{"OBJECT_NAME":"SKYSAT-C11","OBJECT_ID":"2017-068A","EPOCH":"2026-03-03T09:34:15.951072","MEAN_MOTION":15.51924937,"ECCENTRICITY":7.519e-5,"INCLINATION":97.4187,"RA_OF_ASC_NODE":207.1776,"ARG_OF_PERICENTER":86.7569,"MEAN_ANOMALY":273.3769,"EPHEMERIS_TYPE":0,"CLASSIFICATION_TYPE":"U","NORAD_CAT_ID":42987,"ELEMENT_SET_NO":999,"REV_AT_EPOCH":46680,"BSTAR":0.00052387462,"MEAN_MOTION_DOT":0.00031411,"MEAN_MOTION_DDOT":0},{"OBJECT_NAME":"SKYSAT-C10","OBJECT_ID":"2017-068B","EPOCH":"2026-03-03T07:59:54.934080","MEAN_MOTION":15.32490656,"ECCENTRICITY":0.00011597,"INCLINATION":97.4325,"RA_OF_ASC_NODE":198.4163,"ARG_OF_PERICENTER":90.6134,"MEAN_ANOMALY":269.524,"EPHEMERIS_TYPE":0,"CLASSIFICATION_TYPE":"U","NORAD_CAT_ID":42988,"ELEMENT_SET_NO":999,"REV_AT_EPOCH":46613,"BSTAR":0.00043641716,"MEAN_MOTION_DOT":0.00013622,"MEAN_MOTION_DDOT":0},{"OBJECT_NAME":"SKYSAT-C9","OBJECT_ID":"2017-068C","EPOCH":"2026-03-03T08:09:52.384896","MEAN_MOTION":15.38636065,"ECCENTRICITY":0.00096723,"INCLINATION":97.4251,"RA_OF_ASC_NODE":198.4064,"ARG_OF_PERICENTER":153.7418,"MEAN_ANOMALY":206.432,"EPHEMERIS_TYPE":0,"CLASSIFICATION_TYPE":"U","NORAD_CAT_ID":42989,"ELEMENT_SET_NO":999,"REV_AT_EPOCH":46646,"BSTAR":0.00047410189,"MEAN_MOTION_DOT":0.00018056,"MEAN_MOTION_DDOT":0},{"OBJECT_NAME":"SKYSAT-C8","OBJECT_ID":"2017-068D","EPOCH":"2026-03-03T07:49:51.608928","MEAN_MOTION":15.34560506,"ECCENTRICITY":0.00012586,"INCLINATION":97.435,"RA_OF_ASC_NODE":197.8254,"ARG_OF_PERICENTER":113.2685,"MEAN_ANOMALY":246.869,"EPHEMERIS_TYPE":0,"CLASSIFICATION_TYPE":"U","NORAD_CAT_ID":42990,"ELEMENT_SET_NO":999,"REV_AT_EPOCH":46606,"BSTAR":0.00020005058,"MEAN_MOTION_DOT":6.617e-5,"MEAN_MOTION_DDOT":0},{"OBJECT_NAME":"SKYSAT-C7","OBJECT_ID":"2017-068E","EPOCH":"2026-03-03T07:35:16.931616","MEAN_MOTION":15.34512004,"ECCENTRICITY":0.00073819,"INCLINATION":97.4355,"RA_OF_ASC_NODE":198.7983,"ARG_OF_PERICENTER":123.3852,"MEAN_ANOMALY":236.8098,"EPHEMERIS_TYPE":0,"CLASSIFICATION_TYPE":"U","NORAD_CAT_ID":42991,"ELEMENT_SET_NO":999,"REV_AT_EPOCH":46612,"BSTAR":0.00045911985,"MEAN_MOTION_DOT":0.00015294,"MEAN_MOTION_DDOT":0},{"OBJECT_NAME":"SKYSAT-C6","OBJECT_ID":"2017-068F","EPOCH":"2026-03-03T08:51:18.812736","MEAN_MOTION":15.32557813,"ECCENTRICITY":0.00035446,"INCLINATION":97.4389,"RA_OF_ASC_NODE":199.1542,"ARG_OF_PERICENTER":127.5584,"MEAN_ANOMALY":232.598,"EPHEMERIS_TYPE":0,"CLASSIFICATION_TYPE":"U","NORAD_CAT_ID":42992,"ELEMENT_SET_NO":999,"REV_AT_EPOCH":46610,"BSTAR":0.00042937642,"MEAN_MOTION_DOT":0.00013431,"MEAN_MOTION_DDOT":0},{"OBJECT_NAME":"SKYSAT-C12","OBJECT_ID":"2018-099AR","EPOCH":"2026-03-03T14:34:51.647808","MEAN_MOTION":15.45340085,"ECCENTRICITY":0.0004874,"INCLINATION":96.9378,"RA_OF_ASC_NODE":90.2845,"ARG_OF_PERICENTER":154.059,"MEAN_ANOMALY":206.0905,"EPHEMERIS_TYPE":0,"CLASSIFICATION_TYPE":"U","NORAD_CAT_ID":43797,"ELEMENT_SET_NO":999,"REV_AT_EPOCH":40553,"BSTAR":0.00045727,"MEAN_MOTION_DOT":0.00021765,"MEAN_MOTION_DDOT":0},{"OBJECT_NAME":"SKYSAT-C13","OBJECT_ID":"2018-099AW","EPOCH":"2026-03-03T15:12:06.240384","MEAN_MOTION":15.75501646,"ECCENTRICITY":0.0003301,"INCLINATION":96.9415,"RA_OF_ASC_NODE":110.2597,"ARG_OF_PERICENTER":224.532,"MEAN_ANOMALY":135.5682,"EPHEMERIS_TYPE":0,"CLASSIFICATION_TYPE":"U","NORAD_CAT_ID":43802,"ELEMENT_SET_NO":999,"REV_AT_EPOCH":40621,"BSTAR":0.000649,"MEAN_MOTION_DOT":0.00099151,"MEAN_MOTION_DDOT":0},{"OBJECT_NAME":"FLOCK 4Q-16","OBJECT_ID":"2023-174R","EPOCH":"2026-03-03T15:58:49.011456","MEAN_MOTION":15.44397221,"ECCENTRICITY":0.0007896,"INCLINATION":97.3874,"RA_OF_ASC_NODE":148.695,"ARG_OF_PERICENTER":177.3559,"MEAN_ANOMALY":182.7732,"EPHEMERIS_TYPE":0,"CLASSIFICATION_TYPE":"U","NORAD_CAT_ID":58271,"ELEMENT_SET_NO":999,"REV_AT_EPOCH":12926,"BSTAR":0.00067499,"MEAN_MOTION_DOT":0.00031207,"MEAN_MOTION_DDOT":0},{"OBJECT_NAME":"FLOCK 4Q-11","OBJECT_ID":"2023-174T","EPOCH":"2026-03-03T16:11:25.382112","MEAN_MOTION":15.44767926,"ECCENTRICITY":0.0007627,"INCLINATION":97.3917,"RA_OF_ASC_NODE":149.1781,"ARG_OF_PERICENTER":174.6363,"MEAN_ANOMALY":185.4968,"EPHEMERIS_TYPE":0,"CLASSIFICATION_TYPE":"U","NORAD_CAT_ID":58273,"ELEMENT_SET_NO":999,"REV_AT_EPOCH":12927,"BSTAR":0.00068137,"MEAN_MOTION_DOT":0.00031902,"MEAN_MOTION_DDOT":0}]
